OBJECT_NAME,OBJECT_ID,EPOCH,MEAN_MOTION,ECCENTRICITY,INCLINATION,RA_OF_ASC_NODE,ARG_OF_PERICENTER,MEAN_ANOMALY,EPHEMERIS_TYPE,CLASSIFICATION_TYPE,NORAD_CAT_ID,ELEMENT_SET_NO,REV_AT_EPOCH,BSTAR,MEAN_MOTION_DOT,MEAN_MOTION_DDOT
CUBEBUG-2 (LO-74),2013-066AA,2026-07-14T09:23:42.671904,14.93963525,.00557858,97.8911,144.4904,298.0804,61.4782,0,U,39440,999,68105,.18552025E-3,.1973E-4,0
FUNCUBE-1 (AO-73),2013-066AE,2026-07-14T11:56:11.448672,15.09812271,.00380291,97.8287,167.5216,109.9036,250.6296,0,U,39444,999,68378,.20437186E-3,.329E-4,0
UWE-3,2013-066AG,2026-07-14T10:01:54.343776,14.97195599,.00474906,97.8705,151.6809,227.1676,132.5551,0,U,39446,999,68165,.16564366E-3,.1896E-4,0
UNISAT-6,2014-033C,2026-07-14T10:18:05.960160,14.88364829,.00442475,97.7907,347.6681,340.3441,19.6069,0,U,40012,999,65021,.12802781E-3,.1149E-4,0
DUCHIFAT-1,2014-033M,2026-07-14T09:44:24.088704,15.70866495,.00025832,98.0419,258.5256,244.7110,115.3883,0,U,40021,999,66001,.83752089E-3,.105194E-2,0
QB50P1,2014-033R,2026-07-14T13:31:12.719424,15.18660627,.00103162,98.0961,208.6368,126.4314,233.7871,0,U,40025,999,65718,.21396472E-3,.4361E-4,0
LILACSAT-2,2015-049K,2026-07-14T14:40:33.606912,15.52345757,.00083886,97.4624,233.5075,143.1731,217.0100,0,U,40908,999,60000,.18783208E-3,.11356E-3,0
FOX-1A (AO-85),2015-058D,2026-07-14T10:47:31.033536,14.91085582,.01323024,64.7725,194.2515,46.0955,315.0989,0,U,40967,999,11763,.15724465E-3,.1665E-4,0
CAS-2T & KS-1Q,2016-066G,2026-07-14T06:01:16.298976,14.44769200,.03422891,98.3814,270.6774,47.6209,315.3423,0,U,41847,999,50870,.87694951E-4,.567E-5,0
RADFXSAT (FOX-1B),2017-073E,2026-07-14T14:09:34.363584,15.13055354,.01482355,97.4666,62.2466,233.5986,125.1498,0,U,43017,999,46953,.18449566E-3,.4198E-4,0
DIWATA-2B,2018-084H,2026-07-14T13:51:33.842592,15.00562153,.00128637,98.1215,32.9852,86.3601,273.9092,0,U,43678,999,42032,.10110801E-3,.1212E-4,0
ES'HAIL 2,2018-090A,2026-07-14T13:32:21.158592,1.00270535,.00021743,0.0181,37.1060,122.1266,2.0566,0,U,43700,999,2795,0,.136E-5,0
FOX-1CLIFF (AO-95),2018-099N,2026-07-14T03:24:01.068192,15.27260267,.00071772,97.4374,255.2963,244.6856,115.3640,0,U,43770,999,41733,.24788131E-3,.6551E-4,0
ITASAT,2018-099AE,2026-07-14T14:51:35.450784,15.19377875,.00108247,97.4014,246.5867,252.7146,107.2904,0,U,43786,999,41707,.18487318E-3,.3848E-4,0
JY1SAT (JO-97),2018-099AX,2026-07-14T14:55:16.679712,15.34505872,.00068516,97.4121,258.5644,159.8317,200.3198,0,U,43803,999,41783,.27927018E-3,.9262E-4,0
UWE-4,2018-111E,2026-07-14T07:37:49.717920,15.47783417,.00060535,97.5845,124.9918,198.1951,161.9083,0,U,43880,999,41497,.3952186E-3,.20441E-3,0
TIANYAN 01,2019-093C,2026-07-14T15:25:11.835840,14.86562809,.00136881,97.7530,267.2041,3.6602,356.4711,0,U,44881,999,35549,.97983082E-4,.816E-5,0
RS-44 & BREEZE-KM R/B,2019-096E,2026-07-14T10:43:05.578176,12.79748912,.0218538,82.5241,321.5916,80.7343,281.8401,0,U,44909,999,30583,-.64386846E-4,-.3E-7,0
SALSAT,2020-068K,2026-07-14T13:10:14.011392,15.30166467,.00091482,97.8856,200.2874,195.2534,164.8431,0,U,46495,999,31954,.1454086E-3,.4163E-4,0
XW-3 (CAS-9),2021-131B,2026-07-14T14:43:50.862432,14.41381598,.00046529,98.4993,287.8556,32.0969,328.0503,0,U,50466,999,23906,.10218906E-3,.287E-5,0
GREENCUBE (IO-117),2022-080E,2026-07-14T06:21:38.972160,6.42583348,.00090541,70.1411,288.8296,283.5288,76.4363,0,U,53109,999,9380,0,-.3E-7,0
UMKA 1 (RS40S),2023-091G,2026-07-14T14:15:07.665408,15.21117130,.00131285,97.5039,254.1885,31.5753,328.6268,0,U,57172,999,16817,.14977497E-3,.3268E-4,0
CUBESX-HSE 3 (RS42S),2023-091N,2026-07-14T14:44:55.967424,15.31875637,.00097223,97.5082,261.5588,4.1675,355.9646,0,U,57178,999,16862,.2412571E-3,.7355E-4,0
MONITOR-3 (RS58S),2023-091Q,2026-07-14T13:40:31.590912,15.28365154,.00110551,97.5072,259.2244,11.8765,348.2733,0,U,57180,999,16847,.21027107E-3,.574E-4,0
MONITOR-4 (RS57S),2023-091S,2026-07-14T14:42:26.734752,15.28452290,.00110442,97.5066,259.2403,12.2267,347.9238,0,U,57182,999,16848,.21290767E-3,.5829E-4,0
MONITOR-2 (RS39S),2023-091U,2026-07-14T14:01:11.197632,15.19151123,.00114752,97.5060,253.6918,26.1470,334.0341,0,U,57184,999,16811,.13254701E-3,.272E-4,0
SVYATOBOR 1 (RS60S),2023-091X,2026-07-14T14:01:57.453600,15.27056970,.00087973,97.5079,259.5592,6.7943,353.3413,0,U,57187,999,16849,.19280038E-3,.5047E-4,0
VIZARD-METEO (RS38S),2023-091Z,2026-07-14T13:35:02.628096,15.36862395,.0005719,97.5084,265.6143,342.1831,17.9212,0,U,57189,999,16889,.27420105E-3,.9803E-4,0
POLYTECH-UNIVERSE 3 (RS46S),2023-091AB,2026-07-14T14:34:58.816416,15.19363608,.00161258,97.5035,253.2192,39.6017,320.6392,0,U,57191,999,16811,.13094945E-3,.2708E-4,0
UTMN 2 (RS27S),2023-091AP,2026-07-14T14:48:58.334112,15.32693451,.00067946,97.5079,263.2287,352.4698,7.6440,0,U,57203,999,16874,.23264871E-3,.7269E-4,0
