CUBEBUG-2 (LO-74)
1 39440U 13066AA  26195.39146611  .00001973  00000-0  18552-3 0  9994
2 39440  97.8911 144.4904 0055786 298.0804  61.4782 14.93963525681050
FUNCUBE-1 (AO-73)
1 39444U 13066AE  26195.49735473  .00003290  00000-0  20437-3 0  9998
2 39444  97.8287 167.5216 0038029 109.9036 250.6296 15.09812271683783
UWE-3
1 39446U 13066AG  26195.41799009  .00001896  00000-0  16564-3 0  9993
2 39446  97.8705 151.6809 0047491 227.1676 132.5551 14.97195599681657
UNISAT-6
1 40012U 14033C   26195.42923565  .00001149  00000-0  12803-3 0  9999
2 40012  97.7907 347.6681 0044247 340.3441  19.6069 14.88364829650211
DUCHIFAT-1
1 40021U 14033M   26195.40583436  .00105194  00000-0  83752-3 0  9992
2 40021  98.0419 258.5256 0002583 244.7110 115.3883 15.70866495660013
LILACSAT-2
1 40908U 15049K   26195.61150008  .00011356  00000-0  18783-3 0  9990
2 40908  97.4624 233.5075 0008389 143.1731 217.0100 15.52345757600009
CAS-2T & KS-1Q
1 41847U 16066G   26195.25088309  .00000567  00000-0  87695-4 0  9998
2 41847  98.3814 270.6774 0342289  47.6209 315.3423 14.44769200508706
FOX-1B (AO-91)
1 43017U 17073E   26195.58998106  .00004198  00000-0  18450-3 0  9995
2 43017  97.4666  62.2466 0148235 233.5986 125.1498 15.13055354469539
FUNCUBE-3 (EO-79)/QB50P1
1 40025U 14033R   26195.56334166  .00004361  00000-0  21396-3 0  9997
2 40025  98.0961 208.6368 0010316 126.4314 233.7871 15.18660627657181
FOX-1A (AO-85)
1 40967U 15058D   26195.44966474  .00001665  00000-0  15724-3 0  9992
2 40967  64.7725 194.2515 0132302  46.0955 315.0989 14.91085582117632
DIWATA-2B (PO-101)
1 43678U 18084H   26195.57747503  .00001212  00000-0  10111-3 0  9993
2 43678  98.1215  32.9852 0012864  86.3601 273.9092 15.00562153420321
ESHAIL-2
1 43700U 18090A   26195.56413378  .00000136  00000-0  00000-0 0  9992
2 43700   0.0181  37.1060 0002174 122.1266   2.0566  1.00270535 27952
ITASAT-1
1 43786U 18099AE  26195.61916031  .00003848  00000-0  18487-3 0  9999
2 43786  97.4014 246.5867 0010825 252.7146 107.2904 15.19377875417071
FOX-1CLIFF (AO-95)
1 43770U 18099N   26195.14167903  .00006551  00000-0  24788-3 0  9991
2 43770  97.4374 255.2963 0007177 244.6856 115.3640 15.27260267417332
JY1SAT (JO-97)
1 43803U 18099AX  26195.62172083  .00009262  00000-0  27927-3 0  9996
2 43803  97.4121 258.5644 0006852 159.8317 200.3198 15.34505872417839
UWE-4
1 43880U 18111E   26195.31793655  .00020441  00000-0  39522-3 0  9992
2 43880  97.5845 124.9918 0006054 198.1951 161.9083 15.47783417414976
CAS-6 (TO-108)
1 44881U 19093C   26195.64249810  .00000816  00000-0  97983-4 0  9999
2 44881  97.7530 267.2041 0013688   3.6602 356.4711 14.86562809355495
DOSAAF-85 (RS-44)
1 44909U 19096E   26195.44659234 -.00000003  00000-0 -64387-4 0  9998
2 44909  82.5241 321.5916 0218538  80.7343 281.8401 12.79748912305832
SALSAT (TUBSAT 22)
1 46495U 20068K   26195.54877328  .00004163  00000-0  14541-3 0  9993
2 46495  97.8856 200.2874 0009148 195.2534 164.8431 15.30166467319545
CAMSAT XW-3 (CAS-9)
1 50466U 21131B   26195.61378313  .00000287  00000-0  10219-3 0  9997
2 50466  98.4993 287.8556 0004653  32.0969 328.0503 14.41381598239068
ROBUSTA 1F (MTCUBE-2)
1 53109U 22080E   26195.26503440 -.00000003  00000-0  00000-0 0  9991
2 53109  70.1411 288.8296 0009054 283.5288  76.4363  6.42583348 93803
UMKA-1 (RS40S)
1 57172U 23091G   26195.59383872  .00003268  00000-0  14977-3 0  9995
2 57172  97.5039 254.1885 0013129  31.5753 328.6268 15.21117130168170
CUBESX-HSE-3 (RS42S)
1 57178U 23091N   26195.61453666  .00007355  00000-0  24126-3 0  9991
2 57178  97.5082 261.5588 0009722   4.1675 355.9646 15.31875637168626
MONITOR-3 (RS58S)
1 57180U 23091Q   26195.56981008  .00005740  00000-0  21027-3 0  9997
2 57180  97.5072 259.2244 0011055  11.8765 348.2733 15.28365154168477
MONITOR-4 (RS57S)
1 57182U 23091S   26195.61280943  .00005829  00000-0  21291-3 0  9996
2 57182  97.5066 259.2403 0011044  12.2267 347.9238 15.28452290168484
MONITOR-2 (RS39S)
1 57184U 23091U   26195.58415738  .00002720  00000-0  13255-3 0  9994
2 57184  97.5060 253.6918 0011475  26.1470 334.0341 15.19151123168110
SVYATOBOR-1 (RS60S)
1 57187U 23091X   26195.58469275  .00005047  00000-0  19280-3 0  9991
2 57187  97.5079 259.5592 0008797   6.7943 353.3413 15.27056970168496
VIZARD-METEO (RS38S)
1 57189U 23091Z   26195.56600264  .00009803  00000-0  27420-3 0  9995
2 57189  97.5084 265.6143 0005719 342.1831  17.9212 15.36862395168898
UTMN-2 (RS27S)
1 57203U 23091AP  26195.61734183  .00007269  00000-0  23265-3 0  9993
2 57203  97.5079 263.2287 0006795 352.4698   7.6440 15.32693451168746
POLYTECH UNIVERSE-3 (RS46S)
1 57191U 23091AB  26195.60762519  .00002708  00000-0  13095-3 0  9995
2 57191  97.5035 253.2192 0016126  39.6017 320.6392 15.19363608168114
